CCSDS_OMM_VERS = 2.0
CREATION_DATE  = 
ORIGINATOR     = 

OBJECT_NAME    = STARLINK-37026
OBJECT_ID      = 2026-042G
CENTER_NAME    = EARTH
REF_FRAME      = TEME
TIME_SYSTEM    = UTC
MEAN_ELEMENT_THEORY = SGP/SGP4

EPOCH          = 2026-03-31T05:35:49.901280
MEAN_MOTION    = 15.75245249
ECCENTRICITY   = .00014525
INCLINATION    = 53.1565
RA_OF_ASC_NODE = 87.3014
ARG_OF_PERICENTER = 42.7840
MEAN_ANOMALY   = 317.3293

EPHEMERIS_TYPE = 0
CLASSIFICATION_TYPE = U
NORAD_CAT_ID   = 68075
ELEMENT_SET_NO = 999
REV_AT_EPOCH   = 548
BSTAR          = .18375567E-2
MEAN_MOTION_DOT = .291023E-2
MEAN_MOTION_DDOT = 0

CCSDS_OMM_VERS = 2.0
CREATION_DATE  = 
ORIGINATOR     = 

OBJECT_NAME    = STARLINK-37023
OBJECT_ID      = 2026-042H
CENTER_NAME    = EARTH
REF_FRAME      = TEME
TIME_SYSTEM    = UTC
MEAN_ELEMENT_THEORY = SGP/SGP4

EPOCH          = 2026-03-31T06:59:43.239552
MEAN_MOTION    = 15.75264630
ECCENTRICITY   = .00012818
INCLINATION    = 53.1567
RA_OF_ASC_NODE = 86.9514
ARG_OF_PERICENTER = 84.7544
MEAN_ANOMALY   = 275.3622

EPHEMERIS_TYPE = 0
CLASSIFICATION_TYPE = U
NORAD_CAT_ID   = 68076
ELEMENT_SET_NO = 999
REV_AT_EPOCH   = 549
BSTAR          = .10437279E-2
MEAN_MOTION_DOT = .162645E-2
MEAN_MOTION_DDOT = 0

CCSDS_OMM_VERS = 2.0
CREATION_DATE  = 
ORIGINATOR     = 

OBJECT_NAME    = STARLINK-37036
OBJECT_ID      = 2026-042J
CENTER_NAME    = EARTH
REF_FRAME      = TEME
TIME_SYSTEM    = UTC
MEAN_ELEMENT_THEORY = SGP/SGP4

EPOCH          = 2026-03-31T07:00:11.884608
MEAN_MOTION    = 15.75260092
ECCENTRICITY   = .00019378
INCLINATION    = 53.1564
RA_OF_ASC_NODE = 86.9525
ARG_OF_PERICENTER = 48.2772
MEAN_ANOMALY   = 311.8413

EPHEMERIS_TYPE = 0
CLASSIFICATION_TYPE = U
NORAD_CAT_ID   = 68077
ELEMENT_SET_NO = 999
REV_AT_EPOCH   = 549
BSTAR          = .13308032E-2
MEAN_MOTION_DOT = .208662E-2
MEAN_MOTION_DDOT = 0

CCSDS_OMM_VERS = 2.0
CREATION_DATE  = 
ORIGINATOR     = 

OBJECT_NAME    = STARLINK-36973
OBJECT_ID      = 2026-042K
CENTER_NAME    = EARTH
REF_FRAME      = TEME
TIME_SYSTEM    = UTC
MEAN_ELEMENT_THEORY = SGP/SGP4

EPOCH          = 2026-03-31T06:20:58.277760
MEAN_MOTION    = 15.75296130
ECCENTRICITY   = .00012244
INCLINATION    = 53.1591
RA_OF_ASC_NODE = 86.7725
ARG_OF_PERICENTER = 89.1860
MEAN_ANOMALY   = 270.9301

EPHEMERIS_TYPE = 0
CLASSIFICATION_TYPE = U
NORAD_CAT_ID   = 68078
ELEMENT_SET_NO = 999
REV_AT_EPOCH   = 549
BSTAR          = .11333565E-2
MEAN_MOTION_DOT = .177218E-2
MEAN_MOTION_DDOT = 0

CCSDS_OMM_VERS = 2.0
CREATION_DATE  = 
ORIGINATOR     = 

OBJECT_NAME    = STARLINK-37063
OBJECT_ID      = 2026-042L
CENTER_NAME    = EARTH
REF_FRAME      = TEME
TIME_SYSTEM    = UTC
MEAN_ELEMENT_THEORY = SGP/SGP4

EPOCH          = 2026-03-31T05:56:07.786176
MEAN_MOTION    = 15.80938888
ECCENTRICITY   = .00012343
INCLINATION    = 53.1567
RA_OF_ASC_NODE = 86.6592
ARG_OF_PERICENTER = 47.4326
MEAN_ANOMALY   = 312.6800

EPHEMERIS_TYPE = 0
CLASSIFICATION_TYPE = U
NORAD_CAT_ID   = 68079
ELEMENT_SET_NO = 999
REV_AT_EPOCH   = 549
BSTAR          = .96582328E-3
MEAN_MOTION_DOT = .194877E-2
MEAN_MOTION_DDOT = 0

CCSDS_OMM_VERS = 2.0
CREATION_DATE  = 
ORIGINATOR     = 

OBJECT_NAME    = STARLINK-37051
OBJECT_ID      = 2026-042M
CENTER_NAME    = EARTH
REF_FRAME      = TEME
TIME_SYSTEM    = UTC
MEAN_ELEMENT_THEORY = SGP/SGP4

EPOCH          = 2026-03-31T06:27:30.275424
MEAN_MOTION    = 15.75332445
ECCENTRICITY   = .00012487
INCLINATION    = 53.1583
RA_OF_ASC_NODE = 86.8021
ARG_OF_PERICENTER = 90.2311
MEAN_ANOMALY   = 269.8853

EPHEMERIS_TYPE = 0
CLASSIFICATION_TYPE = U
NORAD_CAT_ID   = 68080
ELEMENT_SET_NO = 999
REV_AT_EPOCH   = 549
BSTAR          = .16330358E-2
MEAN_MOTION_DOT = .258539E-2
MEAN_MOTION_DDOT = 0

CCSDS_OMM_VERS = 2.0
CREATION_DATE  = 
ORIGINATOR     = 

OBJECT_NAME    = STARLINK-37066
OBJECT_ID      = 2026-042N
CENTER_NAME    = EARTH
REF_FRAME      = TEME
TIME_SYSTEM    = UTC
MEAN_ELEMENT_THEORY = SGP/SGP4

EPOCH          = 2026-03-31T06:46:38.427744
MEAN_MOTION    = 15.75268068
ECCENTRICITY   = .00011791
INCLINATION    = 53.1593
RA_OF_ASC_NODE = 86.8914
ARG_OF_PERICENTER = 120.2960
MEAN_ANOMALY   = 239.8177

EPHEMERIS_TYPE = 0
CLASSIFICATION_TYPE = U
NORAD_CAT_ID   = 68081
ELEMENT_SET_NO = 999
REV_AT_EPOCH   = 549
BSTAR          = .19634076E-2
MEAN_MOTION_DOT = .312097E-2
MEAN_MOTION_DDOT = 0

CCSDS_OMM_VERS = 2.0
CREATION_DATE  = 
ORIGINATOR     = 

OBJECT_NAME    = STARLINK-37054
OBJECT_ID      = 2026-042P
CENTER_NAME    = EARTH
REF_FRAME      = TEME
TIME_SYSTEM    = UTC
MEAN_ELEMENT_THEORY = SGP/SGP4

EPOCH          = 2026-03-31T05:51:48.847104
MEAN_MOTION    = 15.80882667
ECCENTRICITY   = .00012427
INCLINATION    = 53.1570
RA_OF_ASC_NODE = 86.6384
ARG_OF_PERICENTER = 132.6231
MEAN_ANOMALY   = 227.4897

EPHEMERIS_TYPE = 0
CLASSIFICATION_TYPE = U
NORAD_CAT_ID   = 68082
ELEMENT_SET_NO = 999
REV_AT_EPOCH   = 549
BSTAR          = .23742765E-2
MEAN_MOTION_DOT = .496085E-2
MEAN_MOTION_DDOT = 0

CCSDS_OMM_VERS = 2.0
CREATION_DATE  = 
ORIGINATOR     = 

OBJECT_NAME    = STARLINK-37065
OBJECT_ID      = 2026-042Q
CENTER_NAME    = EARTH
REF_FRAME      = TEME
TIME_SYSTEM    = UTC
MEAN_ELEMENT_THEORY = SGP/SGP4

EPOCH          = 2026-03-30T23:16:22.149984
MEAN_MOTION    = 15.75373865
ECCENTRICITY   = .0002057
INCLINATION    = 53.1580
RA_OF_ASC_NODE = 88.4984
ARG_OF_PERICENTER = 88.3376
MEAN_ANOMALY   = 271.7880

EPHEMERIS_TYPE = 0
CLASSIFICATION_TYPE = U
NORAD_CAT_ID   = 68083
ELEMENT_SET_NO = 999
REV_AT_EPOCH   = 544
BSTAR          = .2029E-2
MEAN_MOTION_DOT = .324508E-2
MEAN_MOTION_DDOT = 0

CCSDS_OMM_VERS = 2.0
CREATION_DATE  = 
ORIGINATOR     = 

OBJECT_NAME    = STARLINK-37037
OBJECT_ID      = 2026-042R
CENTER_NAME    = EARTH
REF_FRAME      = TEME
TIME_SYSTEM    = UTC
MEAN_ELEMENT_THEORY = SGP/SGP4

EPOCH          = 2026-03-31T06:27:02.040768
MEAN_MOTION    = 15.75278756
ECCENTRICITY   = .00014479
INCLINATION    = 53.1580
RA_OF_ASC_NODE = 86.8008
ARG_OF_PERICENTER = 103.6617
MEAN_ANOMALY   = 256.4564

EPHEMERIS_TYPE = 0
CLASSIFICATION_TYPE = U
NORAD_CAT_ID   = 68084
ELEMENT_SET_NO = 999
REV_AT_EPOCH   = 549
BSTAR          = .19750751E-2
MEAN_MOTION_DOT = .314177E-2
MEAN_MOTION_DDOT = 0

CCSDS_OMM_VERS = 2.0
CREATION_DATE  = 
ORIGINATOR     = 

OBJECT_NAME    = STARLINK-37068
OBJECT_ID      = 2026-042S
CENTER_NAME    = EARTH
REF_FRAME      = TEME
TIME_SYSTEM    = UTC
MEAN_ELEMENT_THEORY = SGP/SGP4

EPOCH          = 2026-03-31T06:07:54.122592
MEAN_MOTION    = 15.75247790
ECCENTRICITY   = .00012179
INCLINATION    = 53.1593
RA_OF_ASC_NODE = 86.7108
ARG_OF_PERICENTER = 131.7985
MEAN_ANOMALY   = 228.3139

EPHEMERIS_TYPE = 0
CLASSIFICATION_TYPE = U
NORAD_CAT_ID   = 68085
ELEMENT_SET_NO = 999
REV_AT_EPOCH   = 549
BSTAR          = .22649798E-2
MEAN_MOTION_DOT = .361973E-2
MEAN_MOTION_DDOT = 0

CCSDS_OMM_VERS = 2.0
CREATION_DATE  = 
ORIGINATOR     = 

OBJECT_NAME    = STARLINK-37067
OBJECT_ID      = 2026-042T
CENTER_NAME    = EARTH
REF_FRAME      = TEME
TIME_SYSTEM    = UTC
MEAN_ELEMENT_THEORY = SGP/SGP4

EPOCH          = 2026-03-31T05:47:29.570208
MEAN_MOTION    = 15.80869150
ECCENTRICITY   = .00013464
INCLINATION    = 53.1573
RA_OF_ASC_NODE = 86.6183
ARG_OF_PERICENTER = 139.4062
MEAN_ANOMALY   = 220.7061

EPHEMERIS_TYPE = 0
CLASSIFICATION_TYPE = U
NORAD_CAT_ID   = 68086
ELEMENT_SET_NO = 999
REV_AT_EPOCH   = 549
BSTAR          = .18641587E-2
MEAN_MOTION_DOT = .383999E-2
MEAN_MOTION_DDOT = 0

